ONEWEB-0045             
1 45151U 20008W   25087.81941583  .00000508  00000+0  13978-2 0  9999
2 45151  87.8799 109.8191 0002063  89.8563 270.2801 13.11416158252038
ONEWEB-0047             
1 45152U 20008X   25087.83216939 -.00000549  00000+0 -16100-2 0  9999
2 45152  87.8823 125.0578 0002065  96.8443 263.2919 13.10375679249874
ONEWEB-0048             
1 45153U 20008Y   25087.82719645 -.00000478  00000+0 -14068-2 0  9993
2 45153  87.8826 125.0805 0002061  98.6304 261.5057 13.10374700249488
ONEWEB-0049             
1 45154U 20008Z   25087.82951425 -.00000417  00000+0 -12324-2 0  9994
2 45154  87.8831 125.0705 0002029 111.4085 248.7259 13.10292283249709
ONEWEB-0051             
1 45155U 20008AA  25087.97031567  .00000610  00000+0  16852-2 0  9990
2 45155  87.8799 109.8322 0001866  92.1270 268.0071 13.11416964252736
ONEWEB-0052             
1 45156U 20008AB  25088.35920730 -.00000112  00000+0 -35575-3 0  9996
2 45156  87.8812 124.9162 0002608 110.2647 249.8761 13.10369155250445
ONEWEB-0053             
1 45157U 20008AC  25087.80728497  .00002174  00000+0  61913-2 0  9994
2 45157  87.8817 125.0833 0002855  91.4693 268.6762 13.10357796249584
ONEWEB-0054             
1 45158U 20008AD  25087.84214726  .00000117  00000+0  29821-3 0  9992
2 45158  87.8823 125.0529 0001938  96.8824 263.2524 13.10375514249709
